SHENZHOU-22             
1 66645U 25272A   25341.97426671  .00023028  00000+0  29194-3 0  9994
2 66645  41.4683  45.6321 0009253 352.4121   7.6575 15.58863749263000
CZ-2F R/B               
1 66646U 25272B   25341.54184061  .11903621  80762-5  15075-3 0  9992
2 66646  41.4535  41.9834 0022140 229.6731 130.2205 16.47453798  2009
SOYUZ-MS 28             
1 66664U 25275A   25341.89741187  .00012051  00000+0  22339-3 0  9999
2 66664  51.6302 166.4547 0003425 217.7386 142.3363 15.49404055  1288
1998-067XS              
1 66906U 98067XS  25341.76603330  .00033584  00000+0  58960-3 0  9993
2 66906  51.6298 167.0779 0004102 180.8323 179.2660 15.50202047   848
1998-067XT              
1 66907U 98067XT  25341.89423530  .00063549  00000+0  10872-2 0  9993
2 66907  51.6300 166.4336 0005083 199.2143 160.8655 15.50640627   860
1998-067XU              
1 66908U 98067XU  25341.82962947  .00073824  00000+0  12584-2 0  9996
2 66908  51.6294 166.7524 0005249 198.4563 161.6236 15.50677163   854
SILVERSAT               
1 66909U 98067XV  25341.82955888  .00087585  00000+0  14852-2 0  9992
2 66909  51.6296 166.7520 0005092 199.8533 160.2258 15.50747382   851
1998-067XW              
1 66910U 98067XW  25341.89305730  .00060787  00000+0  10284-2 0  9996
2 66910  51.6295 166.4259 0006037 184.7367 175.3566 15.50969965   869
1998-067XX              
1 66911U 98067XX  25341.95732086  .00074641  00000+0  12533-2 0  9995
2 66911  51.6292 166.1051 0005930 185.6814 174.4109 15.51093228   866
1998-067XY              
1 66912U 98067XY  25341.89449468  .00050656  00000+0  87425-3 0  9991
2 66912  51.6298 166.4355 0005123 198.3714 161.7090 15.50490946   851
